     3.02           N: GNSS NAV DATA    R: GLONASS          RINEX VERSION / TYPE
Spider v7.5.1.8670  SMO                 20251108 150349 UTC PGM / RUN BY / DATE
GLUT -4.1909515858D-09 0.000000000D+00      0    0          TIME SYSTEM CORR
    18    18  2185     7                                    LEAP SECONDS
                                                            END OF HEADER
R01 2025 11 08 01 45 00 1.461114734411D-04 9.094947017729D-13 5.238000000000D+05
    -2.529340917969D+04 2.111463546753D-01-3.725290298462D-09 0.000000000000D+00
    -2.884909179688D+03 2.007341384888D-01 9.313225746155D-10 1.000000000000D+00
    -1.661343261719D+03-3.569844245911D+00-2.793967723846D-09 0.000000000000D+00
R02 2025 11 08 04 15 00-1.955125480890D-05 0.000000000000D+00 5.328300000000D+05
    -2.013922705078D+04 1.873682975769D+00-2.793967723846D-09 0.000000000000D+00
     3.736834472656D+03-9.204578399658D-01 3.725290298462D-09-4.000000000000D+00
    -1.510902832031D+04-2.724540710449D+00-1.862645149231D-09 0.000000000000D+00
R03 2025 11 08 05 45 00 1.328783109784D-04 0.000000000000D+00 5.382000000000D+05
    -1.707500244141D+04 1.345793724060D+00-9.313225746155D-10 0.000000000000D+00
     1.143238232422D+04-1.579364776611D+00 4.656612873077D-09 5.000000000000D+00
    -1.502297949219D+04-2.729813575745D+00-9.313225746155D-10 0.000000000000D+00
R04 2025 11 08 07 15 00 3.205612301826D-04 1.818989403546D-12 5.436000000000D+05
    -1.184290039063D+04 7.234745025635D-01 0.000000000000D+00 0.000000000000D+00
     1.516126220703D+04-2.185005187988D+00 4.656612873077D-09 6.000000000000D+00
    -1.671080664063D+04-2.493449211121D+00-9.313225746155D-10 0.000000000000D+00
R05 2025 11 08 08 45 00 1.587560400367D-04 0.000000000000D+00 5.490000000000D+05
    -6.089901855469D+03-2.051353454590D-01 1.862645149231D-09 0.000000000000D+00
     1.679041455078D+04-2.491188049316D+00 3.725290298462D-09 1.000000000000D+00
    -1.819116845703D+04-2.232564926147D+00-9.313225746155D-10 0.000000000000D+00
R06 2025 11 08 10 15 00-2.404022961855D-04-9.094947017729D-13 5.544000000000D+05
     3.383711914063D+03-1.126957893372D+00 3.725290298462D-09 0.000000000000D+00
     1.921465283203D+04-1.950023651123D+00 2.793967723846D-09-4.000000000000D+00
    -1.643550927734D+04-2.516143798828D+00-9.313225746155D-10 0.000000000000D+00
R07 2025 11 08 11 15 00 1.145973801613D-04-0.000000000000D+00 5.580300000000D+05
     1.019938525391D+04-1.280655860901D+00 3.725290298462D-09 0.000000000000D+00
     1.870261181641D+04-1.439486503601D+00 1.862645149231D-09 5.000000000000D+00
    -1.394724609375D+04-2.864470481873D+00-1.862645149231D-09 0.000000000000D+00
R08 2025 11 08 11 15 00-2.888031303883D-06-0.000000000000D+00 5.580000000000D+05
     1.917030322266D+04 4.074077606201D-01 2.793967723846D-09 0.000000000000D+00
     1.656394970703D+04 1.196746826172D-01 1.862645149231D-09 6.000000000000D+00
     2.807851074219D+03-3.564497947693D+00-3.725290298462D-09 0.000000000000D+00
R09 2025 11 08 13 45 00 2.890378236771D-04 1.818989403546D-12 5.670000000000D+05
    -1.665387792969D+04 1.287806510925D+00 0.000000000000D+00 0.000000000000D+00
     1.051371826172D+04-1.804338455200D+00-9.313225746155D-10-2.000000000000D+00
    -1.613984375000D+04-2.509296417236D+00 2.793967723846D-09 0.000000000000D+00
R10 2025 11 08 13 45 00-4.055108875036D-04-4.547473508865D-12 5.670000000000D+05
    -1.531361035156D+04 2.507200241089D-01-9.313225746155D-10 0.000000000000D+00
     2.039420996094D+04-8.842754364014D-02-1.862645149231D-09-7.000000000000D+00
    -1.599418457031D+03-3.548344612122D+00 1.862645149231D-09 0.000000000000D+00
R11 2025 11 08 13 45 00 2.902001142502D-06-1.818989403546D-12 5.670000000000D+05
    -5.534664062500D+03-1.088242530823D+00-2.793967723846D-09 0.000000000000D+00
     1.991882080078D+04 1.735403060913D+00-1.862645149231D-09 0.000000000000D+00
     1.493686718750D+04-2.720518112183D+00-0.000000000000D+00 0.000000000000D+00
R12 2025 11 08 13 45 00 6.136763840914D-05 9.094947017729D-13 5.670000000000D+05
     8.696790527344D+03-1.836742401123D+00-1.862645149231D-09 0.000000000000D+00
     6.809869140625D+03 2.552484512329D+00-9.313225746155D-10-1.000000000000D+00
     2.301236328125D+04-6.032371520996D-02-2.793967723846D-09 0.000000000000D+00
R13 2025 11 08 04 15 00-6.417930126190D-05-0.000000000000D+00 5.328000000000D+05
    -1.081185595703D+04-1.479673385620D-01 2.793967723846D-09 0.000000000000D+00
    -7.117818359375D+03-3.007580757141D+00-0.000000000000D+00-2.000000000000D+00
     2.196410693359D+04-1.046037673950D+00-1.862645149231D-09 0.000000000000D+00
R14 2025 11 08 06 15 00 3.027170896530D-05 0.000000000000D+00 5.400000000000D+05
    -1.511772070313D+04-1.479080200195D+00 2.793967723846D-09 0.000000000000D+00
    -6.224171386719D+03-2.234269142151D+00-1.862645149231D-09-7.000000000000D+00
     1.958048046875D+04-1.854912757874D+00-9.313225746155D-10 0.000000000000D+00
R15 2025 11 08 09 15 00 6.247311830521D-05-0.000000000000D+00 5.508300000000D+05
    -2.492812939453D+04-4.234733581543D-01 9.313225746155D-10 0.000000000000D+00
    -4.520416503906D+03 4.695701599121D-02-2.793967723846D-09 0.000000000000D+00
     2.943021484375D+03-3.533628463745D+00 9.313225746155D-10 0.000000000000D+00
R16 2025 11 08 11 45 00 4.148669540882D-05 0.000000000000D+00 5.598000000000D+05
    -2.274874121094D+04 1.370249748230D+00 0.000000000000D+00 0.000000000000D+00
     4.792099121094D+03-4.468898773193D-01-9.313225746155D-10-1.000000000000D+00
    -1.044788281250D+04-3.189916610718D+00 2.793967723846D-09 0.000000000000D+00
R17 2025 11 08 08 45 00 2.424828708172D-04 2.728484105319D-12 5.490000000000D+05
    -1.089534619141D+04 2.448442459106D+00-0.000000000000D+00 0.000000000000D+00
    -4.722454589844D+03-1.886878967285D+00-4.656612873077D-09 4.000000000000D+00
     2.259731103516D+04 7.821197509766D-01-0.000000000000D+00 0.000000000000D+00
R18 2025 11 08 10 15 00 2.313051372766D-04 1.818989403546D-12 5.544000000000D+05
    -1.038878173828D+04 1.588814735413D+00-1.862645149231D-09 0.000000000000D+00
    -3.143042480469D+03-2.731977462769D+00-4.656612873077D-09-3.000000000000D+00
     2.310406689453D+04 3.467140197754D-01-0.000000000000D+00 0.000000000000D+00
R19 2025 11 08 12 15 00 1.956243067980D-05 1.818989403546D-12 5.616000000000D+05
    -1.065881591797D+04 2.539634704590D-03-4.656612873077D-09 0.000000000000D+00
    -6.025887695313D+03-3.063397407532D+00-1.862645149231D-09 3.000000000000D+00
     2.236911572266D+04-8.294105529785D-01 0.000000000000D+00 0.000000000000D+00
R20 2025 11 08 13 45 00 2.261279150844D-04 9.094947017729D-13 5.670000000000D+05
    -1.237319531250D+04-1.160567283630D+00-5.587935447693D-09 0.000000000000D+00
    -2.862248046875D+03-2.795210838318D+00-0.000000000000D+00 2.000000000000D+00
     2.215320458984D+04-1.007227897644D+00 0.000000000000D+00 0.000000000000D+00
R21 2025 11 08 13 45 00-2.528000622988D-04-2.728484105319D-12 5.670000000000D+05
    -4.385897949219D+03-1.028743743896D+00-3.725290298462D-09 0.000000000000D+00
     1.409984716797D+04-2.659257888794D+00-1.862645149231D-09 4.000000000000D+00
     2.081709521484D+04 1.581680297852D+00-9.313225746155D-10 0.000000000000D+00
R22 2025 11 08 13 45 00 9.456556290388D-05 1.818989403546D-12 5.670000000000D+05
     7.077810546875D+03-1.191787719727D-01 0.000000000000D+00 0.000000000000D+00
     2.398479003906D+04-6.930408477783D-01-1.862645149231D-09-3.000000000000D+00
     5.052985351563D+03 3.478532791138D+00-1.862645149231D-09 0.000000000000D+00
R23 2025 11 08 13 45 00-1.704795286059D-04-9.094947017729D-13 5.683500000000D+05
     1.282122607422D+04 6.788091659546D-01 2.793967723846D-09 0.000000000000D+00
     1.994150439453D+04 1.117056846619D+00-9.313225746155D-10 3.000000000000D+00
    -9.418423339844D+03 3.288276672363D+00-9.313225746155D-10 0.000000000000D+00
R24 2025 11 08 01 15 00-1.314692199230D-04-2.728484105319D-12 5.220000000000D+05
    -6.408729492188D+03-7.202835083008D-01-3.725290298462D-09 0.000000000000D+00
     1.344681396484D+04-2.745468139648D+00-1.862645149231D-09 2.000000000000D+00
    -2.067519580078D+04-1.562660217285D+00 0.000000000000D+00 0.000000000000D+00
R20 2025 11 08 14 15 00 2.261288464069D-04 9.094947017729D-13 5.688000000000D+05
    -1.469105810547D+04-1.379341125488D+00-5.587935447693D-09 0.000000000000D+00
    -7.463201660156D+03-2.281618118286D+00 9.313225746155D-10 2.000000000000D+00
     1.951007324219D+04-1.910553932190D+00 9.313225746155D-10 0.000000000000D+00
R12 2025 11 08 14 15 00 6.136950105429D-05 9.094947017729D-13 5.688000000000D+05
     5.777288085938D+03-1.385591506958D+00-1.862645149231D-09 0.000000000000D+00
     1.155258837891D+04 2.670827865601D+00-9.313225746155D-10-1.000000000000D+00
     2.201762939453D+04-1.037767410278D+00-1.862645149231D-09 0.000000000000D+00
R21 2025 11 08 14 15 00-2.528056502342D-04-3.637978807092D-12 5.688000000000D+05
    -6.722248535156D+03-1.556322097778D+00-4.656612873077D-09 0.000000000000D+00
     9.221733886719D+03-2.710387229919D+00-0.000000000000D+00 4.000000000000D+00
     2.282397900391D+04 6.336612701416D-01-0.000000000000D+00 0.000000000000D+00
R22 2025 11 08 14 15 00 9.456928819418D-05 1.818989403546D-12 5.688000000000D+05
     6.431911621094D+03-6.248245239258D-01-9.313225746155D-10 0.000000000000D+00
     2.209226220703D+04-1.376788139343D+00-1.862645149231D-09-3.000000000000D+00
     1.103830615234D+04 3.128732681274D+00-9.313225746155D-10 0.000000000000D+00
R10 2025 11 08 14 15 00-4.055192694068D-04-4.547473508865D-12 5.688000000000D+05
    -1.448991113281D+04 6.251535415649D-01-9.313225746155D-10 0.000000000000D+00
     1.953318505859D+04-8.798789978027D-01-9.313225746155D-10-7.000000000000D+00
    -7.842833984375D+03-3.343976974487D+00 2.793967723846D-09 0.000000000000D+00
